STARLINK-5539           
1 55747U 23028G   26068.85733490  .00000320  00000+0  34605-4 0  9990
2 55747  69.9992 244.0974 0002582 271.1358  88.9505 14.98332394166068
HAWK-9B                 
1 59450U 24066J   26068.43130858  .00002608  00000+0  23214-3 0  9995
2 59450  45.6215  73.5456 0003751 229.3903 130.6652 14.98778240104864
